ONEWEB-0156             
1 48052U 21025L   24110.52782175 -.00000144  00000+0 -42804-3 0  9995
2 48052  87.8892 117.2081 0001954  88.2286 271.9067 13.13468706150047
ONEWEB-0161             
1 48053U 21025M   24110.50082473 -.00000223  00000+0 -64650-3 0  9999
2 48053  87.8892 117.2189 0002143  95.3609 264.7765 13.13468253149978
ONEWEB-0158             
1 48054U 21025N   24110.53892528  .00000351  00000+0  92634-3 0  9996
2 48054  87.8889 117.2039 0001874  86.5362 273.5981 13.13468385150108
ONEWEB-0157             
1 48055U 21025P   24110.56272967  .00000074  00000+0  16821-3 0  9995
2 48055  87.8889 117.2144 0002186  87.9349 272.2030 13.13468234150040
ONEWEB-0162             
1 48056U 21025Q   24110.52621673  .00000045  00000+0  88000-4 0  9991
2 48056  87.8885 117.2187 0002032  87.4505 272.6857 13.13468292150015
ONEWEB-0155             
1 48057U 21025R   24110.54685981  .00000352  00000+0  92764-3 0  9998
2 48057  87.8887 117.2238 0001953  89.1560 270.9793 13.13469064150159
ONEWEB-0149             
1 48058U 21025S   24110.56749683  .00000036  00000+0  63219-4 0  9994
2 48058  87.8889 117.2164 0002086  82.4220 277.7146 13.13469786149962
ONEWEB-0148             
1 48059U 21025T   24110.53258443  .00000251  00000+0  65339-3 0  9994
2 48059  87.8890 117.2315 0002525  79.5315 280.6099 13.13470763150085
